STARLINK-31185          
1 58788U 24012B   24031.25002315 -.01697300  00000+0 -13089-1 0  9992
2 58788  43.0012 179.8570 0001917 285.1791  61.9035 15.73987722  3789
STARLINK-31166          
1 58789U 24012C   24031.58335648 -.01723581  00000+0 -14060-1 0  9998
2 58789  43.0007 177.8415 0001051 296.7045 141.5964 15.72752915  3687
STARLINK-31187          
1 58790U 24012D   24031.25002315 -.01748912  00000+0 -13527-1 0  9998
2 58790  43.0012 179.8527 0001315 279.7334  69.0985 15.74019998  3783
STARLINK-31162          
1 58791U 24012E   24031.25002315 -.01704030  00000+0 -15207-1 0  9999
2 58791  43.0011 179.7060 0001801 271.2075 136.4099 15.70610503  3794
STARLINK-31194          
1 58792U 24012F   24031.58335648 -.01131790  00000+0 -80281-2 0  9996
2 58792  43.0033 177.3117 0001923 273.1449  16.5584 15.75655790  3842
STARLINK-31184          
1 58793U 24012G   24031.58335648 -.01743797  00000+0 -14241-1 0  9995
2 58793  43.0008 177.8325 0001248 286.4445 155.3661 15.72761892  3749
STARLINK-31192          
1 58794U 24012H   24031.58335648 -.01742852  00000+0 -14234-1 0  9999
2 58794  43.0008 177.8311 0001098 277.5900 165.0994 15.72760605  3686
STARLINK-31161          
1 58795U 24012J   24031.58335648 -.01721207  00000+0 -14041-1 0  9997
2 58795  43.0006 177.8283 0001652 284.2272 159.3505 15.72741315  3834
STARLINK-31195          
1 58796U 24012K   24031.58335648 -.01292857  00000+0 -10462-1 0  9995
2 58796  43.0008 177.8258 0001060 295.3515 149.1327 15.72572778  3839
STARLINK-31193          
1 58797U 24012L   24031.58335648 -.02490742  00000+0 -19896-1 0  9990
2 58797  43.0008 177.8227 0001373 284.4217 161.2442 15.73373368  3839
STARLINK-31168          
1 58798U 24012M   24031.58335648 -.01740719  00000+0 -14215-1 0  9992
2 58798  43.0007 177.8210 0001697 297.3709 148.8352 15.72752522  3832
STARLINK-31154          
1 58799U 24012N   24031.25002315 -.01696631  00000+0 -13109-1 0  9993
2 58799  43.0011 179.8090 0001008 285.7858  79.8019 15.73952607  3681
STARLINK-31191          
1 58800U 24012P   24031.58335648 -.01699843  00000+0 -13858-1 0  9999
2 58800  43.0006 177.8187 0001430 304.8046 142.2969 15.72719246  3682
STARLINK-31170          
1 58801U 24012Q   24031.50002315 -.01700903  00000+0 -13681-1 0  9998
2 58801  43.0008 178.3190 0001220 290.1557  45.3809 15.73034815  3821
