[
  {
    "OBJECT_NAME": "STARLINK-31185",
    "OBJECT_ID": "2024-012B",
    "EPOCH": "2024-01-31T06:00:02.000160",
    "MEAN_MOTION": 15.73987722,
    "ECCENTRICITY": 0.0001917,
    "INCLINATION": 43.0012,
    "RA_OF_ASC_NODE": 179.857,
    "ARG_OF_PERICENTER": 285.1791,
    "MEAN_ANOMALY": 61.9035,
    "EPHEMERIS_TYPE": 0,
    "CLASSIFICATION_TYPE": "U",
    "NORAD_CAT_ID": 58788,
    "ELEMENT_SET_NO": 999,
    "REV_AT_EPOCH": 378,
    "BSTAR": -0.013089,
    "MEAN_MOTION_DOT": -0.016973,
    "MEAN_MOTION_DDOT": 0
  },
  {
    "OBJECT_NAME": "STARLINK-31166",
    "OBJECT_ID": "2024-012C",
    "EPOCH": "2024-01-31T14:00:01.999872",
    "MEAN_MOTION": 15.72752915,
    "ECCENTRICITY": 0.0001051,
    "INCLINATION": 43.0007,
    "RA_OF_ASC_NODE": 177.8415,
    "ARG_OF_PERICENTER": 296.7045,
    "MEAN_ANOMALY": 141.5964,
    "EPHEMERIS_TYPE": 0,
    "CLASSIFICATION_TYPE": "U",
    "NORAD_CAT_ID": 58789,
    "ELEMENT_SET_NO": 999,
    "REV_AT_EPOCH": 368,
    "BSTAR": -0.01406,
    "MEAN_MOTION_DOT": -0.01723581,
    "MEAN_MOTION_DDOT": 0
  },
  {
    "OBJECT_NAME": "STARLINK-31187",
    "OBJECT_ID": "2024-012D",
    "EPOCH": "2024-01-31T06:00:02.000160",
    "MEAN_MOTION": 15.74019998,
    "ECCENTRICITY": 0.0001315,
    "INCLINATION": 43.0012,
    "RA_OF_ASC_NODE": 179.8527,
    "ARG_OF_PERICENTER": 279.7334,
    "MEAN_ANOMALY": 69.0985,
    "EPHEMERIS_TYPE": 0,
    "CLASSIFICATION_TYPE": "U",
    "NORAD_CAT_ID": 58790,
    "ELEMENT_SET_NO": 999,
    "REV_AT_EPOCH": 378,
    "BSTAR": -0.013527,
    "MEAN_MOTION_DOT": -0.01748912,
    "MEAN_MOTION_DDOT": 0
  },
  {
    "OBJECT_NAME": "STARLINK-31162",
    "OBJECT_ID": "2024-012E",
    "EPOCH": "2024-01-31T06:00:02.000160",
    "MEAN_MOTION": 15.70610503,
    "ECCENTRICITY": 0.0001801,
    "INCLINATION": 43.0011,
    "RA_OF_ASC_NODE": 179.706,
    "ARG_OF_PERICENTER": 271.2075,
    "MEAN_ANOMALY": 136.4099,
    "EPHEMERIS_TYPE": 0,
    "CLASSIFICATION_TYPE": "U",
    "NORAD_CAT_ID": 58791,
    "ELEMENT_SET_NO": 999,
    "REV_AT_EPOCH": 379,
    "BSTAR": -0.015207,
    "MEAN_MOTION_DOT": -0.0170403,
    "MEAN_MOTION_DDOT": 0
  },
  {
    "OBJECT_NAME": "STARLINK-31194",
    "OBJECT_ID": "2024-012F",
    "EPOCH": "2024-01-31T14:00:01.999872",
    "MEAN_MOTION": 15.7565579,
    "ECCENTRICITY": 0.0001923,
    "INCLINATION": 43.0033,
    "RA_OF_ASC_NODE": 177.3117,
    "ARG_OF_PERICENTER": 273.1449,
    "MEAN_ANOMALY": 16.5584,
    "EPHEMERIS_TYPE": 0,
    "CLASSIFICATION_TYPE": "U",
    "NORAD_CAT_ID": 58792,
    "ELEMENT_SET_NO": 999,
    "REV_AT_EPOCH": 384,
    "BSTAR": -0.0080281,
    "MEAN_MOTION_DOT": -0.0113179,
    "MEAN_MOTION_DDOT": 0
  },
  {
    "OBJECT_NAME": "STARLINK-31184",
    "OBJECT_ID": "2024-012G",
    "EPOCH": "2024-01-31T14:00:01.999872",
    "MEAN_MOTION": 15.72761892,
    "ECCENTRICITY": 0.0001248,
    "INCLINATION": 43.0008,
    "RA_OF_ASC_NODE": 177.8325,
    "ARG_OF_PERICENTER": 286.4445,
    "MEAN_ANOMALY": 155.3661,
    "EPHEMERIS_TYPE": 0,
    "CLASSIFICATION_TYPE": "U",
    "NORAD_CAT_ID": 58793,
    "ELEMENT_SET_NO": 999,
    "REV_AT_EPOCH": 374,
    "BSTAR": -0.014241,
    "MEAN_MOTION_DOT": -0.01743797,
    "MEAN_MOTION_DDOT": 0
  },
  {
    "OBJECT_NAME": "STARLINK-31192",
    "OBJECT_ID": "2024-012H",
    "EPOCH": "2024-01-31T14:00:01.999872",
    "MEAN_MOTION": 15.72760605,
    "ECCENTRICITY": 0.0001098,
    "INCLINATION": 43.0008,
    "RA_OF_ASC_NODE": 177.8311,
    "ARG_OF_PERICENTER": 277.59,
    "MEAN_ANOMALY": 165.0994,
    "EPHEMERIS_TYPE": 0,
    "CLASSIFICATION_TYPE": "U",
    "NORAD_CAT_ID": 58794,
    "ELEMENT_SET_NO": 999,
    "REV_AT_EPOCH": 368,
    "BSTAR": -0.014234,
    "MEAN_MOTION_DOT": -0.01742852,
    "MEAN_MOTION_DDOT": 0
  },
  {
    "OBJECT_NAME": "STARLINK-31161",
    "OBJECT_ID": "2024-012J",
    "EPOCH": "2024-01-31T14:00:01.999872",
    "MEAN_MOTION": 15.72741315,
    "ECCENTRICITY": 0.0001652,
    "INCLINATION": 43.0006,
    "RA_OF_ASC_NODE": 177.8283,
    "ARG_OF_PERICENTER": 284.2272,
    "MEAN_ANOMALY": 159.3505,
    "EPHEMERIS_TYPE": 0,
    "CLASSIFICATION_TYPE": "U",
    "NORAD_CAT_ID": 58795,
    "ELEMENT_SET_NO": 999,
    "REV_AT_EPOCH": 383,
    "BSTAR": -0.014041,
    "MEAN_MOTION_DOT": -0.01721207,
    "MEAN_MOTION_DDOT": 0
  },
  {
    "OBJECT_NAME": "STARLINK-31195",
    "OBJECT_ID": "2024-012K",
    "EPOCH": "2024-01-31T14:00:01.999872",
    "MEAN_MOTION": 15.72572778,
    "ECCENTRICITY": 0.000106,
    "INCLINATION": 43.0008,
    "RA_OF_ASC_NODE": 177.8258,
    "ARG_OF_PERICENTER": 295.3515,
    "MEAN_ANOMALY": 149.1327,
    "EPHEMERIS_TYPE": 0,
    "CLASSIFICATION_TYPE": "U",
    "NORAD_CAT_ID": 58796,
    "ELEMENT_SET_NO": 999,
    "REV_AT_EPOCH": 383,
    "BSTAR": -0.010462,
    "MEAN_MOTION_DOT": -0.01292857,
    "MEAN_MOTION_DDOT": 0
  },
  {
    "OBJECT_NAME": "STARLINK-31193",
    "OBJECT_ID": "2024-012L",
    "EPOCH": "2024-01-31T14:00:01.999872",
    "MEAN_MOTION": 15.73373368,
    "ECCENTRICITY": 0.0001373,
    "INCLINATION": 43.0008,
    "RA_OF_ASC_NODE": 177.8227,
    "ARG_OF_PERICENTER": 284.4217,
    "MEAN_ANOMALY": 161.2442,
    "EPHEMERIS_TYPE": 0,
    "CLASSIFICATION_TYPE": "U",
    "NORAD_CAT_ID": 58797,
    "ELEMENT_SET_NO": 999,
    "REV_AT_EPOCH": 383,
    "BSTAR": -0.019896,
    "MEAN_MOTION_DOT": -0.02490742,
    "MEAN_MOTION_DDOT": 0
  },
  {
    "OBJECT_NAME": "STARLINK-31168",
    "OBJECT_ID": "2024-012M",
    "EPOCH": "2024-01-31T14:00:01.999872",
    "MEAN_MOTION": 15.72752522,
    "ECCENTRICITY": 0.0001697,
    "INCLINATION": 43.0007,
    "RA_OF_ASC_NODE": 177.821,
    "ARG_OF_PERICENTER": 297.3709,
    "MEAN_ANOMALY": 148.8352,
    "EPHEMERIS_TYPE": 0,
    "CLASSIFICATION_TYPE": "U",
    "NORAD_CAT_ID": 58798,
    "ELEMENT_SET_NO": 999,
    "REV_AT_EPOCH": 383,
    "BSTAR": -0.014215,
    "MEAN_MOTION_DOT": -0.01740719,
    "MEAN_MOTION_DDOT": 0
  },
  {
    "OBJECT_NAME": "STARLINK-31154",
    "OBJECT_ID": "2024-012N",
    "EPOCH": "2024-01-31T06:00:02.000160",
    "MEAN_MOTION": 15.73952607,
    "ECCENTRICITY": 0.0001008,
    "INCLINATION": 43.0011,
    "RA_OF_ASC_NODE": 179.809,
    "ARG_OF_PERICENTER": 285.7858,
    "MEAN_ANOMALY": 79.8019,
    "EPHEMERIS_TYPE": 0,
    "CLASSIFICATION_TYPE": "U",
    "NORAD_CAT_ID": 58799,
    "ELEMENT_SET_NO": 999,
    "REV_AT_EPOCH": 368,
    "BSTAR": -0.013109,
    "MEAN_MOTION_DOT": -0.01696631,
    "MEAN_MOTION_DDOT": 0
  },
  {
    "OBJECT_NAME": "STARLINK-31191",
    "OBJECT_ID": "2024-012P",
    "EPOCH": "2024-01-31T14:00:01.999872",
    "MEAN_MOTION": 15.72719246,
    "ECCENTRICITY": 0.000143,
    "INCLINATION": 43.0006,
    "RA_OF_ASC_NODE": 177.8187,
    "ARG_OF_PERICENTER": 304.8046,
    "MEAN_ANOMALY": 142.2969,
    "EPHEMERIS_TYPE": 0,
    "CLASSIFICATION_TYPE": "U",
    "NORAD_CAT_ID": 58800,
    "ELEMENT_SET_NO": 999,
    "REV_AT_EPOCH": 368,
    "BSTAR": -0.013858,
    "MEAN_MOTION_DOT": -0.01699843,
    "MEAN_MOTION_DDOT": 0
  },
  {
    "OBJECT_NAME": "STARLINK-31170",
    "OBJECT_ID": "2024-012Q",
    "EPOCH": "2024-01-31T12:00:02.000160",
    "MEAN_MOTION": 15.73034815,
    "ECCENTRICITY": 0.000122,
    "INCLINATION": 43.0008,
    "RA_OF_ASC_NODE": 178.319,
    "ARG_OF_PERICENTER": 290.1557,
    "MEAN_ANOMALY": 45.3809,
    "EPHEMERIS_TYPE": 0,
    "CLASSIFICATION_TYPE": "U",
    "NORAD_CAT_ID": 58801,
    "ELEMENT_SET_NO": 999,
    "REV_AT_EPOCH": 382,
    "BSTAR": -0.013681,
    "MEAN_MOTION_DOT": -0.01700903,
    "MEAN_MOTION_DDOT": 0
  }
]